CCSDS_OMM_VERS = 2.0
CREATION_DATE  = 
ORIGINATOR     = 

OBJECT_NAME    = PROGRESS-MS 32
OBJECT_ID      = 2025-204A
CENTER_NAME    = EARTH
REF_FRAME      = TEME
TIME_SYSTEM    = UTC
MEAN_ELEMENT_THEORY = SGP/SGP4

EPOCH          = 2025-11-14T05:23:38.944320
MEAN_MOTION    = 15.49650045
ECCENTRICITY   = .00041947
INCLINATION    = 51.6329
RA_OF_ASC_NODE = 283.6283
ARG_OF_PERICENTER = 68.4296
MEAN_ANOMALY   = 291.7139

EPHEMERIS_TYPE = 0
CLASSIFICATION_TYPE = U
NORAD_CAT_ID   = 65586
ELEMENT_SET_NO = 999
REV_AT_EPOCH   = 27
BSTAR          = .24659261E-3
MEAN_MOTION_DOT = .13472E-3
MEAN_MOTION_DDOT = 0

CCSDS_OMM_VERS = 2.0
CREATION_DATE  = 
ORIGINATOR     = 

OBJECT_NAME    = CYGNUS NG-23
OBJECT_ID      = 2025-208A
CENTER_NAME    = EARTH
REF_FRAME      = TEME
TIME_SYSTEM    = UTC
MEAN_ELEMENT_THEORY = SGP/SGP4

EPOCH          = 2025-11-14T05:23:38.944320
MEAN_MOTION    = 15.49650045
ECCENTRICITY   = .00041947
INCLINATION    = 51.6329
RA_OF_ASC_NODE = 283.6283
ARG_OF_PERICENTER = 68.4296
MEAN_ANOMALY   = 291.7139

EPHEMERIS_TYPE = 0
CLASSIFICATION_TYPE = U
NORAD_CAT_ID   = 65616
ELEMENT_SET_NO = 999
REV_AT_EPOCH   = 22
BSTAR          = .24659261E-3
MEAN_MOTION_DOT = .13472E-3
MEAN_MOTION_DDOT = 0

CCSDS_OMM_VERS = 2.0
CREATION_DATE  = 
ORIGINATOR     = 

OBJECT_NAME    = DRAGONFLY
OBJECT_ID      = 1998-067XH
CENTER_NAME    = EARTH
REF_FRAME      = TEME
TIME_SYSTEM    = UTC
MEAN_ELEMENT_THEORY = SGP/SGP4

EPOCH          = 2025-11-14T07:07:42.177216
MEAN_MOTION    = 15.63074521
ECCENTRICITY   = .00048604
INCLINATION    = 51.6290
RA_OF_ASC_NODE = 280.3622
ARG_OF_PERICENTER = 125.0740
MEAN_ANOMALY   = 235.0711

EPHEMERIS_TYPE = 0
CLASSIFICATION_TYPE = U
NORAD_CAT_ID   = 65729
ELEMENT_SET_NO = 999
REV_AT_EPOCH   = 870
BSTAR          = .14515538E-2
MEAN_MOTION_DOT = .136575E-2
MEAN_MOTION_DDOT = 0

CCSDS_OMM_VERS = 2.0
CREATION_DATE  = 
ORIGINATOR     = 

OBJECT_NAME    = 1998-067XJ
OBJECT_ID      = 1998-067XJ
CENTER_NAME    = EARTH
REF_FRAME      = TEME
TIME_SYSTEM    = UTC
MEAN_ELEMENT_THEORY = SGP/SGP4

EPOCH          = 2025-11-14T02:46:22.535040
MEAN_MOTION    = 15.77864219
ECCENTRICITY   = .00110769
INCLINATION    = 51.6246
RA_OF_ASC_NODE = 279.1320
ARG_OF_PERICENTER = 114.1824
MEAN_ANOMALY   = 246.0336

EPHEMERIS_TYPE = 0
CLASSIFICATION_TYPE = U
NORAD_CAT_ID   = 65730
ELEMENT_SET_NO = 999
REV_AT_EPOCH   = 870
BSTAR          = .38885839E-2
MEAN_MOTION_DOT = .73188E-2
MEAN_MOTION_DDOT = 0

CCSDS_OMM_VERS = 2.0
CREATION_DATE  = 
ORIGINATOR     = 

OBJECT_NAME    = 1998-067XK
OBJECT_ID      = 1998-067XK
CENTER_NAME    = EARTH
REF_FRAME      = TEME
TIME_SYSTEM    = UTC
MEAN_ELEMENT_THEORY = SGP/SGP4

EPOCH          = 2025-11-14T06:39:11.215296
MEAN_MOTION    = 15.60074493
ECCENTRICITY   = .00055909
INCLINATION    = 51.6311
RA_OF_ASC_NODE = 280.9837
ARG_OF_PERICENTER = 100.5626
MEAN_ANOMALY   = 259.5997

EPHEMERIS_TYPE = 0
CLASSIFICATION_TYPE = U
NORAD_CAT_ID   = 65731
ELEMENT_SET_NO = 999
REV_AT_EPOCH   = 869
BSTAR          = .10741013E-2
MEAN_MOTION_DOT = .89311E-3
MEAN_MOTION_DDOT = 0

CCSDS_OMM_VERS = 2.0
CREATION_DATE  = 
ORIGINATOR     = 

OBJECT_NAME    = RSP-03
OBJECT_ID      = 1998-067XL
CENTER_NAME    = EARTH
REF_FRAME      = TEME
TIME_SYSTEM    = UTC
MEAN_ELEMENT_THEORY = SGP/SGP4

EPOCH          = 2025-11-14T04:36:04.813632
MEAN_MOTION    = 15.61492578
ECCENTRICITY   = .00063768
INCLINATION    = 51.6294
RA_OF_ASC_NODE = 281.1605
ARG_OF_PERICENTER = 102.7497
MEAN_ANOMALY   = 257.4210

EPHEMERIS_TYPE = 0
CLASSIFICATION_TYPE = U
NORAD_CAT_ID   = 65732
ELEMENT_SET_NO = 999
REV_AT_EPOCH   = 869
BSTAR          = .12937332E-2
MEAN_MOTION_DOT = .114107E-2
MEAN_MOTION_DDOT = 0

CCSDS_OMM_VERS = 2.0
CREATION_DATE  = 
ORIGINATOR     = 

OBJECT_NAME    = GHS-01
OBJECT_ID      = 1998-067XM
CENTER_NAME    = EARTH
REF_FRAME      = TEME
TIME_SYSTEM    = UTC
MEAN_ELEMENT_THEORY = SGP/SGP4

EPOCH          = 2025-11-14T06:45:35.412768
MEAN_MOTION    = 15.64181916
ECCENTRICITY   = .00053858
INCLINATION    = 51.6302
RA_OF_ASC_NODE = 280.2627
ARG_OF_PERICENTER = 122.3086
MEAN_ANOMALY   = 237.8431

EPHEMERIS_TYPE = 0
CLASSIFICATION_TYPE = U
NORAD_CAT_ID   = 65733
ELEMENT_SET_NO = 999
REV_AT_EPOCH   = 871
BSTAR          = .15664848E-2
MEAN_MOTION_DOT = .154368E-2
MEAN_MOTION_DDOT = 0

CCSDS_OMM_VERS = 2.0
CREATION_DATE  = 
ORIGINATOR     = 

OBJECT_NAME    = YOTSUBA-KULOVER
OBJECT_ID      = 1998-067XN
CENTER_NAME    = EARTH
REF_FRAME      = TEME
TIME_SYSTEM    = UTC
MEAN_ELEMENT_THEORY = SGP/SGP4

EPOCH          = 2025-11-14T03:42:57.979008
MEAN_MOTION    = 15.55159308
ECCENTRICITY   = .00025577
INCLINATION    = 51.6312
RA_OF_ASC_NODE = 283.1629
ARG_OF_PERICENTER = 59.5120
MEAN_ANOMALY   = 300.6123

EPHEMERIS_TYPE = 0
CLASSIFICATION_TYPE = U
NORAD_CAT_ID   = 65941
ELEMENT_SET_NO = 999
REV_AT_EPOCH   = 540
BSTAR          = .10318978E-2
MEAN_MOTION_DOT = .71093E-3
MEAN_MOTION_DDOT = 0

CCSDS_OMM_VERS = 2.0
CREATION_DATE  = 
ORIGINATOR     = 

OBJECT_NAME    = BOTAN
OBJECT_ID      = 1998-067XP
CENTER_NAME    = EARTH
REF_FRAME      = TEME
TIME_SYSTEM    = UTC
MEAN_ELEMENT_THEORY = SGP/SGP4

EPOCH          = 2025-11-14T06:26:00.854016
MEAN_MOTION    = 15.56700686
ECCENTRICITY   = .00046954
INCLINATION    = 51.6307
RA_OF_ASC_NODE = 282.4197
ARG_OF_PERICENTER = 72.5108
MEAN_ANOMALY   = 287.6396

EPHEMERIS_TYPE = 0
CLASSIFICATION_TYPE = U
NORAD_CAT_ID   = 65942
ELEMENT_SET_NO = 999
REV_AT_EPOCH   = 542
BSTAR          = .13576361E-2
MEAN_MOTION_DOT = .99589E-3
MEAN_MOTION_DDOT = 0

CCSDS_OMM_VERS = 2.0
CREATION_DATE  = 
ORIGINATOR     = 

OBJECT_NAME    = E-KAGAKU-1
OBJECT_ID      = 1998-067XQ
CENTER_NAME    = EARTH
REF_FRAME      = TEME
TIME_SYSTEM    = UTC
MEAN_ELEMENT_THEORY = SGP/SGP4

EPOCH          = 2025-11-14T06:47:25.335168
MEAN_MOTION    = 15.55168737
ECCENTRICITY   = .00042744
INCLINATION    = 51.6323
RA_OF_ASC_NODE = 282.5192
ARG_OF_PERICENTER = 57.2513
MEAN_ANOMALY   = 302.8889

EPHEMERIS_TYPE = 0
CLASSIFICATION_TYPE = U
NORAD_CAT_ID   = 65943
ELEMENT_SET_NO = 999
REV_AT_EPOCH   = 542
BSTAR          = .10114136E-2
MEAN_MOTION_DOT = .69698E-3
MEAN_MOTION_DDOT = 0

CCSDS_OMM_VERS = 2.0
CREATION_DATE  = 
ORIGINATOR     = 

OBJECT_NAME    = HTV-X1
OBJECT_ID      = 2025-241A
CENTER_NAME    = EARTH
REF_FRAME      = TEME
TIME_SYSTEM    = UTC
MEAN_ELEMENT_THEORY = SGP/SGP4

EPOCH          = 2025-11-14T05:23:38.944320
MEAN_MOTION    = 15.49650045
ECCENTRICITY   = .00041947
INCLINATION    = 51.6329
RA_OF_ASC_NODE = 283.6283
ARG_OF_PERICENTER = 68.4296
MEAN_ANOMALY   = 291.7139

EPHEMERIS_TYPE = 0
CLASSIFICATION_TYPE = U
NORAD_CAT_ID   = 66174
ELEMENT_SET_NO = 999
REV_AT_EPOCH   = 145
BSTAR          = .24659261E-3
MEAN_MOTION_DOT = .13472E-3
MEAN_MOTION_DDOT = 0

